{
  "type": "FeatureCollection",
  "features": [
    {
      "type": "Feature",
      "properties": {
        "norad_id": 34540,
        "name": "IRIDIUM 33 DEB",
        "group": "iridium-33-debris",
        "lat": 43.60943842171201,
        "lon": 127.737566400258,
        "alt_km": 635.2167510836052,
        "timestamp": "2025-12-04T17:48:40.549756+00:00",
        "meta_object_name": "IRIDIUM 33 DEB",
        "meta_object_id": "1997-051JH",
        "meta_epoch": "2025-12-03T05:26:21.211296",
        "meta_mean_motion": 14.74981692,
        "meta_eccentricity": 0.0014801,
        "meta_inclination": 86.3092,
        "meta_ra_of_asc_node": 311.9555,
        "meta_arg_of_pericenter": 194.145,
        "meta_mean_anomaly": 180.1243,
        "meta_ephemeris_type": 0,
        "meta_classification_type": "U",
        "meta_norad_cat_id": 34540,
        "meta_element_set_no": 999,
        "meta_rev_at_epoch": 88881,
        "meta_bstar": 0.0021818,
        "meta_mean_motion_dot": 0.00014731,
        "meta_mean_motion_ddot": 0,
        "tle_line1": "1 34540U 97051JH  25337.22663439  .00014731  00000+0  21818-2 0  9990",
        "tle_line2": "2 34540  86.3092 311.9555 0014801 194.1450 180.1243 14.74981692888816"
      },
      "geometry": {
        "type": "Point",
        "coordinates": [
          127.737566400258,
          43.60943842171201
        ]
      }
    },
    {
      "type": "Feature",
      "properties": {
        "norad_id": 34648,
        "name": "IRIDIUM 33 DEB",
        "group": "iridium-33-debris",
        "lat": -40.51589870346663,
        "lon": -77.9183393320202,
        "alt_km": 727.7776923013971,
        "timestamp": "2025-12-04T17:48:40.549767+00:00",
        "meta_object_name": "IRIDIUM 33 DEB",
        "meta_object_id": "1997-051JZ",
        "meta_epoch": "2025-12-01T03:11:38.418720",
        "meta_mean_motion": 14.1087899,
        "meta_eccentricity": 0.01868529,
        "meta_inclination": 86.3903,
        "meta_ra_of_asc_node": 286.6295,
        "meta_arg_of_pericenter": 334.6513,
        "meta_mean_anomaly": 24.5588,
        "meta_ephemeris_type": 0,
        "meta_classification_type": "U",
        "meta_norad_cat_id": 34648,
        "meta_element_set_no": 999,
        "meta_rev_at_epoch": 84797,
        "meta_bstar": 0.0079356223,
        "meta_mean_motion_dot": 0.00016788,
        "meta_mean_motion_ddot": 0,
        "tle_line1": "1 34648U 97051JZ  25335.13308355  .00016788  00000+0  79356-2 0  9994",
        "tle_line2": "2 34648  86.3903 286.6295 0186852 334.6513  24.5588 14.10878990847973"
      },
      "geometry": {
        "type": "Point",
        "coordinates": [
          -77.9183393320202,
          -40.51589870346663
        ]
      }
    },
    {
      "type": "Feature",
      "properties": {
        "norad_id": 34651,
        "name": "IRIDIUM 33 DEB",
        "group": "iridium-33-debris",
        "lat": -35.13644379306983,
        "lon": 141.35492439463616,
        "alt_km": 821.1705430933107,
        "timestamp": "2025-12-04T17:48:40.549777+00:00",
        "meta_object_name": "IRIDIUM 33 DEB",
        "meta_object_id": "1997-051KC",
        "meta_epoch": "2025-12-04T04:30:04.689792",
        "meta_mean_motion": 14.2558791,
        "meta_eccentricity": 0.0141872,
        "meta_inclination": 86.2824,
        "meta_ra_of_asc_node": 144.2134,
        "meta_arg_of_pericenter": 231.1309,
        "meta_mean_anomaly": 127.7156,
        "meta_ephemeris_type": 0,
        "meta_classification_type": "U",
        "meta_norad_cat_id": 34651,
        "meta_element_set_no": 999,
        "meta_rev_at_epoch": 85774,
        "meta_bstar": 0.0069877343,
        "meta_mean_motion_dot": 0.00018427,
        "meta_mean_motion_ddot": 0,
        "tle_line1": "1 34651U 97051KC  25338.18755428  .00018427  00000+0  69877-2 0  9992",
        "tle_line2": "2 34651  86.2824 144.2134 0141872 231.1309 127.7156 14.25587910857744"
      },
      "geometry": {
        "type": "Point",
        "coordinates": [
          141.35492439463616,
          -35.13644379306983
        ]
      }
    },
    {
      "type": "Feature",
      "properties": {
        "norad_id": 34652,
        "name": "IRIDIUM 33 DEB",
        "group": "iridium-33-debris",
        "lat": 51.20180233060922,
        "lon": -11.858908668534369,
        "alt_km": 680.3283708483032,
        "timestamp": "2025-12-04T17:48:40.549788+00:00",
        "meta_object_name": "IRIDIUM 33 DEB",
        "meta_object_id": "1997-051KD",
        "meta_epoch": "2025-12-02T12:03:44.445600",
        "meta_mean_motion": 14.61898676,
        "meta_eccentricity": 0.00270627,
        "meta_inclination": 86.3312,
        "meta_ra_of_asc_node": 344.5601,
        "meta_arg_of_pericenter": 334.9096,
        "meta_mean_anomaly": 177.4047,
        "meta_ephemeris_type": 0,
        "meta_classification_type": "U",
        "meta_norad_cat_id": 34652,
        "meta_element_set_no": 999,
        "meta_rev_at_epoch": 88334,
        "meta_bstar": 0.0012168376,
        "meta_mean_motion_dot": 6.139e-05,
        "meta_mean_motion_ddot": 0,
        "tle_line1": "1 34652U 97051KD  25336.50259775  .00006139  00000+0  12168-2 0  9999",
        "tle_line2": "2 34652  86.3312 344.5601 0027062 334.9096 177.4047 14.61898676883341"
      },
      "geometry": {
        "type": "Point",
        "coordinates": [
          -11.858908668534369,
          51.20180233060922
        ]
      }
    },
    {
      "type": "Feature",
      "properties": {
        "norad_id": 34690,
        "name": "IRIDIUM 33 DEB",
        "group": "iridium-33-debris",
        "lat": 66.45593539150576,
        "lon": -147.88843325468073,
        "alt_km": 698.7341022258715,
        "timestamp": "2025-12-04T17:48:40.549798+00:00",
        "meta_object_name": "IRIDIUM 33 DEB",
        "meta_object_id": "1997-051KM",
        "meta_epoch": "2025-12-03T11:52:36.056064",
        "meta_mean_motion": 14.55037039,
        "meta_eccentricity": 0.0011766,
        "meta_inclination": 86.3793,
        "meta_ra_of_asc_node": 41.009,
        "meta_arg_of_pericenter": 56.8306,
        "meta_mean_anomaly": 7.0908,
        "meta_ephemeris_type": 0,
        "meta_classification_type": "U",
        "meta_norad_cat_id": 34690,
        "meta_element_set_no": 999,
        "meta_rev_at_epoch": 87960,
        "meta_bstar": 0.00070543794,
        "meta_mean_motion_dot": 3.062e-05,
        "meta_mean_motion_ddot": 0,
        "tle_line1": "1 34690U 97051KM  25337.49486176  .00003062  00000+0  70544-3 0  9992",
        "tle_line2": "2 34690  86.3793  41.0090 0011766  56.8306   7.0908 14.55037039879604"
      },
      "geometry": {
        "type": "Point",
        "coordinates": [
          -147.88843325468073,
          66.45593539150576
        ]
      }
    },
    {
      "type": "Feature",
      "properties": {
        "norad_id": 34693,
        "name": "IRIDIUM 33 DEB",
        "group": "iridium-33-debris",
        "lat": -85.10295935810264,
        "lon": 176.75339159447657,
        "alt_km": 508.3041792073782,
        "timestamp": "2025-12-04T17:48:40.549809+00:00",
        "meta_object_name": "IRIDIUM 33 DEB",
        "meta_object_id": "1997-051KQ",
        "meta_epoch": "2025-12-03T09:49:19.549920",
        "meta_mean_motion": 15.24618598,
        "meta_eccentricity": 0.0016087,
        "meta_inclination": 86.3049,
        "meta_ra_of_asc_node": 308.4487,
        "meta_arg_of_pericenter": 66.5202,
        "meta_mean_anomaly": 88.8029,
        "meta_ephemeris_type": 0,
        "meta_classification_type": "U",
        "meta_norad_cat_id": 34693,
        "meta_element_set_no": 999,
        "meta_rev_at_epoch": 88772,
        "meta_bstar": 0.0053871746,
        "meta_mean_motion_dot": 0.00135539,
        "meta_mean_motion_ddot": 0,
        "tle_line1": "1 34693U 97051KQ  25337.40925405  .00135539  00000+0  53872-2 0  9998",
        "tle_line2": "2 34693  86.3049 308.4487 0016087  66.5202  88.8029 15.24618598887720"
      },
      "geometry": {
        "type": "Point",
        "coordinates": [
          176.75339159447657,
          -85.10295935810264
        ]
      }
    },
    {
      "type": "Feature",
      "properties": {
        "norad_id": 34696,
        "name": "IRIDIUM 33 DEB",
        "group": "iridium-33-debris",
        "lat": -26.67064601253585,
        "lon": 29.321028194322547,
        "alt_km": 724.5668788863313,
        "timestamp": "2025-12-04T17:48:40.549819+00:00",
        "meta_object_name": "IRIDIUM 33 DEB",
        "meta_object_id": "1997-051KT",
        "meta_epoch": "2025-12-03T04:28:11.100576",
        "meta_mean_motion": 14.64210204,
        "meta_eccentricity": 0.00749062,
        "meta_inclination": 86.1858,
        "meta_ra_of_asc_node": 31.9639,
        "meta_arg_of_pericenter": 199.8052,
        "meta_mean_anomaly": 216.5408,
        "meta_ephemeris_type": 0,
        "meta_classification_type": "U",
        "meta_norad_cat_id": 34696,
        "meta_element_set_no": 999,
        "meta_rev_at_epoch": 86533,
        "meta_bstar": 0.0085473115,
        "meta_mean_motion_dot": 0.00047152,
        "meta_mean_motion_ddot": 0,
        "tle_line1": "1 34696U 97051KT  25337.18623959  .00047152  00000+0  85473-2 0  9990",
        "tle_line2": "2 34696  86.1858  31.9639 0074906 199.8052 216.5408 14.64210204865332"
      },
      "geometry": {
        "type": "Point",
        "coordinates": [
          29.321028194322547,
          -26.67064601253585
        ]
      }
    }
  ]
}